[
    {
        "Altitude(m)": 557848.9746294278,
        "Argument of Periapsis(deg)": 0.006622991110713501,
        "Eccentricity": 0.0,
        "Inclination(deg)": 53.0,
        "Latitude(deg)": -16.650439817767133,
        "Longitude(deg)": -133.7248608600405,
        "Mean Anomaly(deg)": -20.817507132422435,
        "RAAN(deg)": 339.99014336852804,
        "Satellite Name": "Starlink Shell 1 1516",
        "Satellite Number": 1516,
        "Semi-Major Axis(m)": 6931778.249405717,
        "Time(s)": 190
    },
    {
        "Altitude(m)": 557703.7560971032,
        "Argument of Periapsis(deg)": 0.0069715695902247375,
        "Eccentricity": 0.0,
        "Inclination(deg)": 53.0,
        "Latitude(deg)": -16.159719318226312,
        "Longitude(deg)": -133.35741776340686,
        "Mean Anomaly(deg)": -20.19067592886569,
        "RAAN(deg)": 339.9896245984506,
        "Satellite Name": "Starlink Shell 1 1516",
        "Satellite Number": 1516,
        "Semi-Major Axis(m)": 6931778.249405717,
        "Time(s)": 200
    },
    {
        "Altitude(m)": 557560.4053698666,
        "Argument of Periapsis(deg)": 0.007320148069735974,
        "Eccentricity": 0.0,
        "Inclination(deg)": 53.0,
        "Latitude(deg)": -15.66818185453138,
        "Longitude(deg)": -132.9919739190348,
        "Mean Anomaly(deg)": -19.563844725308996,
        "RAAN(deg)": 339.9891058283731,
        "Satellite Name": "Starlink Shell 1 1516",
        "Satellite Number": 1516,
        "Semi-Major Axis(m)": 6931778.249405717,
        "Time(s)": 210
    },
    {
        "Altitude(m)": 557418.9694399501,
        "Argument of Periapsis(deg)": 0.007668726549247212,
        "Eccentricity": 0.0,
        "Inclination(deg)": 53.0,
        "Latitude(deg)": -15.175856592802052,
        "Longitude(deg)": -132.6284589728629,
        "Mean Anomaly(deg)": -18.93701352175235,
        "RAAN(deg)": 339.9885870582956,
        "Satellite Name": "Starlink Shell 1 1516",
        "Satellite Number": 1516,
        "Semi-Major Axis(m)": 6931778.249405717,
        "Time(s)": 220
    },
    {
        "Altitude(m)": 557279.4942986419,
        "Argument of Periapsis(deg)": 0.00801730502875845,
        "Eccentricity": 0.0,
        "Inclination(deg)": 53.0,
        "Latitude(deg)": -14.682772279335278,
        "Longitude(deg)": -132.26680337907825,
        "Mean Anomaly(deg)": -18.3101823181955,
        "RAAN(deg)": 339.98806828821813,
        "Satellite Name": "Starlink Shell 1 1516",
        "Satellite Number": 1516,
        "Semi-Major Axis(m)": 6931778.249405717,
        "Time(s)": 230
    },
    {
        "Altitude(m)": 557142.0249161257,
        "Argument of Periapsis(deg)": 0.008365883508269684,
        "Eccentricity": 0.0,
        "Inclination(deg)": 53.0,
        "Latitude(deg)": -14.188957257720384,
        "Longitude(deg)": -131.90693786921133,
        "Mean Anomaly(deg)": -17.68335111463886,
        "RAAN(deg)": 339.9875495181407,
        "Satellite Name": "Starlink Shell 1 1516",
        "Satellite Number": 1516,
        "Semi-Major Axis(m)": 6931778.249405717,
        "Time(s)": 240
    },
    {
        "Altitude(m)": 557006.6052218913,
        "Argument of Periapsis(deg)": 0.008714461987780921,
        "Eccentricity": 0.0,
        "Inclination(deg)": 53.0,
        "Latitude(deg)": -13.694439485594893,
        "Longitude(deg)": -131.548794434051,
        "Mean Anomaly(deg)": -17.056519911082162,
        "RAAN(deg)": 339.9870307480632,
        "Satellite Name": "Starlink Shell 1 1516",
        "Satellite Number": 1516,
        "Semi-Major Axis(m)": 6931778.249405717,
        "Time(s)": 250
    },
    {
        "Altitude(m)": 556873.2780855836,
        "Argument of Periapsis(deg)": 0.009063040467292158,
        "Eccentricity": 0.0,
        "Inclination(deg)": 53.0,
        "Latitude(deg)": -13.19924655105975,
        "Longitude(deg)": -131.1923057926568,
        "Mean Anomaly(deg)": -16.429688707525415,
        "RAAN(deg)": 339.98651197798574,
        "Satellite Name": "Starlink Shell 1 1516",
        "Satellite Number": 1516,
        "Semi-Major Axis(m)": 6931778.249405717,
        "Time(s)": 260
    },
    {
        "Altitude(m)": 556742.0852984091,
        "Argument of Periapsis(deg)": 0.009411618946803396,
        "Eccentricity": 0.0,
        "Inclination(deg)": 53.0,
        "Latitude(deg)": -12.703405688762397,
        "Longitude(deg)": -130.83740486136256,
        "Mean Anomaly(deg)": -15.802857503968669,
        "RAAN(deg)": 339.9859932079082,
        "Satellite Name": "Starlink Shell 1 1516",
        "Satellite Number": 1516,
        "Semi-Major Axis(m)": 6931778.249405717,
        "Time(s)": 270
    },
    {
        "Altitude(m)": 556613.067555066,
        "Argument of Periapsis(deg)": 0.009760197426314633,
        "Eccentricity": 0.0,
        "Inclination(deg)": 53.0,
        "Latitude(deg)": -12.206943795658798,
        "Longitude(deg)": -130.4840257356617,
        "Mean Anomaly(deg)": -15.176026300411975,
        "RAAN(deg)": 339.98547443783076,
        "Satellite Name": "Starlink Shell 1 1516",
        "Satellite Number": 1516,
        "Semi-Major Axis(m)": 6931778.249405717,
        "Time(s)": 280
    },
    {
        "Altitude(m)": 556486.2644362226,
        "Argument of Periapsis(deg)": 0.01010877590582587,
        "Eccentricity": 0.0,
        "Inclination(deg)": 53.0,
        "Latitude(deg)": -11.70988744647024,
        "Longitude(deg)": -130.13210315924366,
        "Mean Anomaly(deg)": -14.549195096855279,
        "RAAN(deg)": 339.98495566775335,
        "Satellite Name": "Starlink Shell 1 1516",
        "Satellite Number": 1516,
        "Semi-Major Axis(m)": 6931778.249405717,
        "Time(s)": 290
    },
    {
        "Altitude(m)": 556361.7143915182,
        "Argument of Periapsis(deg)": 0.010457354385337106,
        "Eccentricity": 0.0,
        "Inclination(deg)": 53.0,
        "Latitude(deg)": -11.21226290884651,
        "Longitude(deg)": -129.7815719930696,
        "Mean Anomaly(deg)": -13.922363893298582,
        "RAAN(deg)": 339.98443689767583,
        "Satellite Name": "Starlink Shell 1 1516",
        "Satellite Number": 1516,
        "Semi-Major Axis(m)": 6931778.249405717,
        "Time(s)": 300
    },
    {
        "Altitude(m)": 556239.4547231584,
        "Argument of Periapsis(deg)": 0.010805932864848343,
        "Eccentricity": 0.0,
        "Inclination(deg)": 53.0,
        "Latitude(deg)": -10.714096158244052,
        "Longitude(deg)": -129.43236819736947,
        "Mean Anomaly(deg)": -13.295532689741785,
        "RAAN(deg)": 339.9839181275984,
        "Satellite Name": "Starlink Shell 1 1516",
        "Satellite Number": 1516,
        "Semi-Major Axis(m)": 6931778.249405717,
        "Time(s)": 310
    },
    {
        "Altitude(m)": 556119.5215700531,
        "Argument of Periapsis(deg)": 0.01115451134435958,
        "Eccentricity": 0.0,
        "Inclination(deg)": 53.0,
        "Latitude(deg)": -10.215412892537337,
        "Longitude(deg)": -129.08442830082598,
        "Mean Anomaly(deg)": -12.668701486185192,
        "RAAN(deg)": 339.9833993575209,
        "Satellite Name": "Starlink Shell 1 1516",
        "Satellite Number": 1516,
        "Semi-Major Axis(m)": 6931778.249405717,
        "Time(s)": 320
    },
    {
        "Altitude(m)": 556001.9498925407,
        "Argument of Periapsis(deg)": 0.011503089823870818,
        "Eccentricity": 0.0,
        "Inclination(deg)": 53.0,
        "Latitude(deg)": -9.716238546371487,
        "Longitude(deg)": -128.7376888698245,
        "Mean Anomaly(deg)": -12.041870282628393,
        "RAAN(deg)": 339.98288058744345,
        "Satellite Name": "Starlink Shell 1 1516",
        "Satellite Number": 1516,
        "Semi-Major Axis(m)": 6931778.249405717,
        "Time(s)": 330
    },
    {
        "Altitude(m)": 555886.7734576846,
        "Argument of Periapsis(deg)": 0.011851668303382053,
        "Eccentricity": 0.0,
        "Inclination(deg)": 53.0,
        "Latitude(deg)": -9.21659830526914,
        "Longitude(deg)": -128.39208749065006,
        "Mean Anomaly(deg)": -11.415039079071645,
        "RAAN(deg)": 339.9823618173659,
        "Satellite Name": "Starlink Shell 1 1516",
        "Satellite Number": 1516,
        "Semi-Major Axis(m)": 6931778.249405717,
        "Time(s)": 340
    },
    {
        "Altitude(m)": 555774.0248251793,
        "Argument of Periapsis(deg)": 0.012200246782893292,
        "Eccentricity": 0.0,
        "Inclination(deg)": 53.0,
        "Latitude(deg)": -8.716517119505166,
        "Longitude(deg)": -128.04756223888808,
        "Mean Anomaly(deg)": -10.788207875515003,
        "RAAN(deg)": 339.98184304728846,
        "Satellite Name": "Starlink Shell 1 1516",
        "Satellite Number": 1516,
        "Semi-Major Axis(m)": 6931778.249405717,
        "Time(s)": 350
    },
    {
        "Altitude(m)": 555663.7353338432,
        "Argument of Periapsis(deg)": 0.012548825262404526,
        "Eccentricity": 0.0,
        "Inclination(deg)": 53.0,
        "Latitude(deg)": -8.21601971776044,
        "Longitude(deg)": -127.70405114890636,
        "Mean Anomaly(deg)": -10.161376671958307,
        "RAAN(deg)": 339.981324277211,
        "Satellite Name": "Starlink Shell 1 1516",
        "Satellite Number": 1516,
        "Semi-Major Axis(m)": 6931778.249405717,
        "Time(s)": 360
    },
    {
        "Altitude(m)": 555555.935088725,
        "Argument of Periapsis(deg)": 0.012897403741915765,
        "Eccentricity": 0.0,
        "Inclination(deg)": 53.0,
        "Latitude(deg)": -7.715130620565499,
        "Longitude(deg)": -127.36149319629355,
        "Mean Anomaly(deg)": -9.53454546840156,
        "RAAN(deg)": 339.98080550713354,
        "Satellite Name": "Starlink Shell 1 1516",
        "Satellite Number": 1516,
        "Semi-Major Axis(m)": 6931778.249405717,
        "Time(s)": 370
    }
]